     3.02           N: GNSS NAV DATA    E: GALILEO          RINEX VERSION / TYPE
Spider v7.5.1.8670  SMO                 20251108 150349 UTC PGM / RUN BY / DATE
GAL    1.5250D+02 -6.6406D-02 -1.1292D-02  0.0000D+00       IONOSPHERIC CORR
GAUT  9.3132257462D-10-8.881784197D-16 518400 2391          TIME SYSTEM CORR
GPGA  3.2596290112D-09 7.993605777D-15      0 2392          TIME SYSTEM CORR
    18    18  2185     7                                    LEAP SECONDS
                                                            END OF HEADER
E26 2025 11 08 14 30 00 1.278028939851D-04 1.091393642128D-11 0.000000000000D+00
     6.200000000000D+01 1.865625000000D+01 2.810831345457D-09 1.226447704344D+00
     9.629875421524D-07 4.302796442062D-04-1.955777406693D-06 5.440600040436D+03
     5.706000000000D+05-4.470348358154D-08-9.393393563746D-01 4.842877388000D-08
     9.920625611477D-01 3.940937500000D+02-1.797582500024D+00-5.875601885260D-09
     4.535903250225D-11 5.170000000000D+02 2.391000000000D+03 0.000000000000D+00
     3.120000000000D+00 0.000000000000D+00-6.519258022308D-09-7.217749953270D-09
     5.712640000000D+05
E15 2025 11 08 14 30 00-2.125833416358D-04-2.685851541173D-12 0.000000000000D+00
     6.200000000000D+01 1.728125000000D+01 2.774758423030D-09 2.497062972604D+00
     7.003545761108D-07 4.238619003445D-04-3.501772880554D-06 5.440604978561D+03
     5.706000000000D+05-5.774199962616D-08-9.370882019421D-01-5.587935447693D-08
     9.987163002455D-01 4.343125000000D+02-1.479837873782D+00-5.912746289616D-09
     3.178703827933D-11 5.170000000000D+02 2.391000000000D+03 0.000000000000D+00
     3.120000000000D+00 0.000000000000D+00 3.026798367500D-09 3.259629011154D-09
     5.712640000000D+05
E13 2025 11 08 14 30 00-4.272023215890D-05-5.968558980385D-13 0.000000000000D+00
     6.200000000000D+01 2.943750000000D+01 2.660468068072D-09 1.669561245687D+00
     1.348555088043D-06 3.612303407863D-04-2.698972821236D-06 5.440609828949D+03
     5.706000000000D+05-6.332993507385D-08-9.370037418298D-01-7.450580596924D-09
     9.987606544588D-01 4.156250000000D+02-1.453412703216D+00-5.882745039944D-09
     5.500229091626D-11 5.170000000000D+02 2.391000000000D+03 0.000000000000D+00
     3.120000000000D+00 0.000000000000D+00 2.328306436539D-09 2.328306436539D-09
     5.712640000000D+05
E21 2025 11 08 14 30 00-7.006459054537D-04-2.359001882724D-12 0.000000000000D+00
     6.200000000000D+01 4.818750000000D+01 3.014768434895D-09 9.327671544789D-01
     2.218410372734D-06 1.039976486936D-04 1.118518412113D-05 5.440616312027D+03
     5.706000000000D+05-3.352761268616D-08-3.034748737420D+00-4.284083843231D-08
     9.629486290756D-01 1.040625000000D+02 6.013117015831D-01-5.257004689632D-09
    -7.868184992432D-10 5.170000000000D+02 2.391000000000D+03 0.000000000000D+00
     3.120000000000D+00 0.000000000000D+00 1.396983861923D-09 1.164153218269D-09
     5.712640000000D+05
E30 2025 11 08 14 30 00-3.895977279171D-04-4.098410499864D-11 0.000000000000D+00
     6.200000000000D+01 6.090625000000D+01 3.073342247362D-09 2.225670850113D+00
     2.726912498474D-06 4.287819610909D-04 1.089088618755D-05 5.440627580643D+03
     5.706000000000D+05 1.490116119385D-08-3.032676142380D+00-7.636845111847D-08
     9.607231751879D-01 1.046250000000D+02 8.707751348224D-01-5.279505626887D-09
    -7.993189998778D-10 2.580000000000D+02 2.391000000000D+03 0.000000000000D+00
     3.120000000000D+00 0.000000000000D+00-1.396983861923D-09 0.000000000000D+00
     5.713000000000D+05
E13 2025 11 08 14 30 00-4.272081423551D-05-5.968558980385D-13 0.000000000000D+00
     6.200000000000D+01 2.943750000000D+01 2.660468068072D-09 1.669561245687D+00
     1.348555088043D-06 3.612303407863D-04-2.698972821236D-06 5.440609828949D+03
     5.706000000000D+05-6.332993507385D-08-9.370037418298D-01-7.450580596924D-09
     9.987606544588D-01 4.156250000000D+02-1.453412703216D+00-5.882745039944D-09
     5.500229091626D-11 2.580000000000D+02 2.391000000000D+03 0.000000000000D+00
     3.120000000000D+00 0.000000000000D+00 2.328306436539D-09 0.000000000000D+00
     5.713000000000D+05
E26 2025 11 08 14 30 00 1.278032432310D-04 1.092814727599D-11 0.000000000000D+00
     6.200000000000D+01 1.865625000000D+01 2.810831345457D-09 1.226447704344D+00
     9.629875421524D-07 4.302796442062D-04-1.955777406693D-06 5.440600040436D+03
     5.706000000000D+05-4.470348358154D-08-9.393393563746D-01 4.842877388000D-08
     9.920625611477D-01 3.940937500000D+02-1.797582500024D+00-5.875601885260D-09
     4.535903250225D-11 2.580000000000D+02 2.391000000000D+03 0.000000000000D+00
     3.120000000000D+00 0.000000000000D+00-6.519258022308D-09 0.000000000000D+00
     5.713000000000D+05
E15 2025 11 08 14 30 00-2.125842147507D-04-2.685851541173D-12 0.000000000000D+00
     6.200000000000D+01 1.728125000000D+01 2.774758423030D-09 2.497062972604D+00
     7.003545761108D-07 4.238619003445D-04-3.501772880554D-06 5.440604978561D+03
     5.706000000000D+05-5.774199962616D-08-9.370882019421D-01-5.587935447693D-08
     9.987163002455D-01 4.343125000000D+02-1.479837873782D+00-5.912746289616D-09
     3.178703827933D-11 2.580000000000D+02 2.391000000000D+03 0.000000000000D+00
     3.120000000000D+00 0.000000000000D+00 3.026798367500D-09 0.000000000000D+00
     5.713000000000D+05
E21 2025 11 08 14 30 00-7.006463711150D-04-2.373212737439D-12 0.000000000000D+00
     6.200000000000D+01 4.818750000000D+01 3.014768434895D-09 9.327671544789D-01
     2.218410372734D-06 1.039976486936D-04 1.118518412113D-05 5.440616312027D+03
     5.706000000000D+05-3.352761268616D-08-3.034748737420D+00-4.284083843231D-08
     9.629486290756D-01 1.040625000000D+02 6.013117015831D-01-5.257004689632D-09
    -7.868184992432D-10 2.580000000000D+02 2.391000000000D+03 0.000000000000D+00
     3.120000000000D+00 0.000000000000D+00 1.396983861923D-09 0.000000000000D+00
     5.713000000000D+05
E30 2025 11 08 14 40 00-3.896218258888D-04-4.098410499864D-11 0.000000000000D+00
     6.300000000000D+01 6.162500000000D+01 3.075485199844D-09 2.300018800215D+00
     2.777203917503D-06 4.286891780794D-04 1.087971031666D-05 5.440627769470D+03
     5.712000000000D+05 1.676380634308D-08-3.032679311060D+00-8.009374141693D-08
     9.607226851104D-01 1.047500000000D+02 8.708119988951D-01-5.281291415558D-09
    -7.982475236368D-10 5.170000000000D+02 2.391000000000D+03 0.000000000000D+00
     3.120000000000D+00 0.000000000000D+00-1.396983861923D-09-1.862645149231D-09
     5.718640000000D+05
E26 2025 11 08 14 40 00 1.278094714507D-04 1.092814727599D-11 0.000000000000D+00
     6.300000000000D+01 1.925000000000D+01 2.803331122792D-09 1.300213124856D+00
     9.834766387939D-07 4.301815060899D-04-2.041459083557D-06 5.440600599289D+03
     5.712000000000D+05-5.215406417847D-08-9.393428600634D-01 4.470348358154D-08
     9.920625552960D-01 3.963750000000D+02-1.796961965284D+00-5.880959251273D-09
     4.607334652684D-11 5.170000000000D+02 2.391000000000D+03 0.000000000000D+00
     3.120000000000D+00 0.000000000000D+00-6.519258022308D-09-7.217749953270D-09
     5.718640000000D+05
E15 2025 11 08 14 40 00-2.125849132426D-04-2.685851541173D-12 0.000000000000D+00
     6.300000000000D+01 1.765625000000D+01 2.777615693006D-09 2.571421133875D+00
     7.189810276031D-07 4.239855334163D-04-3.548339009285D-06 5.440604732513D+03
     5.712000000000D+05-5.587935447693D-08-9.370917217230D-01-6.332993507385D-08
     9.987163382814D-01 4.352500000000D+02-1.479810653265D+00-5.913460605085D-09
     2.750114545813D-11 5.170000000000D+02 2.391000000000D+03 0.000000000000D+00
     3.120000000000D+00 0.000000000000D+00 3.026798367500D-09 3.259629011154D-09
     5.718640000000D+05
E13 2025 11 08 14 40 00-4.272052319720D-05-5.826450433233D-13 0.000000000000D+00
     6.300000000000D+01 2.975000000000D+01 2.659753750578D-09 1.743875001542D+00
     1.361593604088D-06 3.611937863752D-04-2.689659595490D-06 5.440609916687D+03
     5.712000000000D+05-6.146728992462D-08-9.370072747769D-01-7.450580596924D-09
     9.987606793284D-01 4.154375000000D+02-1.453341181151D+00-5.883459355412D-09
     5.571660494086D-11 5.170000000000D+02 2.391000000000D+03 0.000000000000D+00
     3.120000000000D+00 0.000000000000D+00 2.328306436539D-09 2.328306436539D-09
     5.718640000000D+05
E21 2025 11 08 14 40 00-7.006474188529D-04-2.373212737439D-12 0.000000000000D+00
     6.300000000000D+01 4.934375000000D+01 3.025483197305D-09 1.008516135374D+00
     2.246350049973D-06 1.040083589032D-04 1.117959618568D-05 5.440616033554D+03
     5.712000000000D+05-2.793967723846D-08-3.034751846121D+00-3.911554813385D-08
     9.629481624047D-01 1.043125000000D+02 5.999477294311D-01-5.260576266974D-09
    -7.900329279664D-10 5.170000000000D+02 2.391000000000D+03 0.000000000000D+00
     3.120000000000D+00 0.000000000000D+00 1.396983861923D-09 1.164153218269D-09
     5.718640000000D+05
E30 2025 11 08 14 40 00-3.896221751347D-04-4.098410499864D-11 0.000000000000D+00
     6.300000000000D+01 6.162500000000D+01 3.075485199844D-09 2.300018800215D+00
     2.777203917503D-06 4.286891780794D-04 1.087971031666D-05 5.440627769470D+03
     5.712000000000D+05 1.676380634308D-08-3.032679311060D+00-8.009374141693D-08
     9.607226851104D-01 1.047500000000D+02 8.708119988951D-01-5.281291415558D-09
    -7.982475236368D-10 2.580000000000D+02 2.391000000000D+03 0.000000000000D+00
     3.120000000000D+00 0.000000000000D+00-1.396983861923D-09 0.000000000000D+00
     5.719000000000D+05
